EUTELSAT 8 WEST B       
1 40875U 15039B   25358.25893763 -.00000045  00000+0  00000+0 0  9996
2 40875   0.0641   6.9443 0004232 266.9132 264.3953  1.00271266 37909
EUTELSAT 9B             
1 41310U 16005A   25358.26231765  .00000083  00000+0  00000+0 0  9995
2 41310   0.0230  38.5865 0004527 233.3148 284.5874  1.00272813 36363
EUTELSAT 65 WEST A      
1 41382U 16014A   25358.03012970 -.00000255  00000+0  00000+0 0  9996
2 41382   0.0493 341.2447 0002228 294.7713 122.4597  1.00272444 35774
EUTELSAT 117 WEST B     
1 41589U 16038B   25357.66664133  .00000010  00000+0  00000+0 0  9991
2 41589   0.0112 151.1868 0000267 153.5075 270.7383  1.00269264 34900
EUTELSAT 172B           
1 42741U 17029B   25358.12961366  .00000015  00000+0  00000+0 0  9998
2 42741   0.0283 128.8760 0000202   1.7341 180.9646  1.00270328 31972
EUTELSAT 7C             
1 44334U 19034B   25358.26188431  .00000069  00000+0  00000+0 0  9994
2 44334   0.0725 178.0580 0003166  78.9568 297.2777  1.00270713  5087
EUTELSAT 5 WEST B       
1 44624U 19067A   25358.25945763 -.00000021  00000+0  00000+0 0  9999
2 44624   0.0638 342.4583 0003117 289.7329 269.2531  1.00271324 22686
EUTELSAT KONNECT        
1 45027U 20005B   25358.26188431  .00000070  00000+0  00000+0 0  9996
2 45027   0.0698  94.2648 0001351 187.1858 273.0694  1.00268571 22582
